OBJECT_NAME,OBJECT_ID,EPOCH,MEAN_MOTION,ECCENTRICITY,INCLINATION,RA_OF_ASC_NODE,ARG_OF_PERICENTER,MEAN_ANOMALY,EPHEMERIS_TYPE,CLASSIFICATION_TYPE,NORAD_CAT_ID,ELEMENT_SET_NO,REV_AT_EPOCH,BSTAR,MEAN_MOTION_DOT,MEAN_MOTION_DDOT
STARLINK-4746,2022-114AE,2026-06-19T08:44:26.530944,15.08831867,.00010488,53.1582,197.3903,86.4758,273.6354,0,U,53846,999,20832,.40747756E-4,.361E-5,0
STARLINK-4777,2022-114AF,2026-06-19T09:00:22.551264,15.08826831,.00009648,53.1590,197.4578,89.1967,270.9135,0,U,53847,999,20832,.53382039E-4,.562E-5,0
STARLINK-4780,2022-114AG,2026-06-19T08:33:49.294656,15.08846459,.00008245,53.1587,197.3449,124.0355,236.0715,0,U,53848,999,20832,.41866511E-4,.379E-5,0
STARLINK-4770,2022-114AH,2026-06-19T22:00:01.999584,15.21352451,.0001194,53.1607,194.6097,141.2357,132.6495,0,U,53849,999,565,.50622915E-2,.116369E-2,0
STARLINK-4767,2022-114AJ,2026-06-19T08:17:54.140064,15.08837812,.00012815,53.1583,197.2768,76.7679,283.3456,0,U,53850,999,20832,.32016243E-4,.222E-5,0
STARLINK-4755,2022-114AK,2026-06-19T11:49:54.205536,15.08832125,.00011462,53.1585,196.7715,85.6450,274.4672,0,U,53851,999,20834,-.5028318E-5,-.368E-5,0
STARLINK-4797,2022-114AL,2026-06-19T08:58:22.376640,15.08829054,.00012274,53.1596,192.4656,88.0171,272.0961,0,U,53852,999,20839,-.46108553E-4,-.1021E-4,0
STARLINK-4794,2022-114AM,2026-06-19T08:28:31.097280,15.08832589,.00012033,53.1587,197.3219,86.6215,273.4914,0,U,53853,999,20832,.36880597E-4,.299E-5,0
STARLINK-4800,2022-114AN,2026-06-19T08:03:26.512992,15.08832592,.0001163,53.1586,187.9382,81.8495,278.2628,0,U,53854,999,20845,.1224914E-4,-.93E-6,0
STARLINK-4703,2022-114AP,2026-06-19T22:00:01.999584,15.20706701,.00005241,53.1601,194.5450,158.2888,147.1914,0,U,53855,999,575,.52363208E-2,.118154E-2,0
STARLINK-4795,2022-114AQ,2026-06-19T22:00:01.999584,15.77678931,.00009273,53.2176,167.4516,121.9678,321.7311,0,U,53856,999,577,.31766073E-2,.580232E-2,0
STARLINK-4809,2022-114AR,2026-06-19T22:00:01.999584,15.16467542,.00008834,53.1600,194.5587,151.6079,149.1698,0,U,53857,999,579,.39968507E-2,.79284E-3,0
STARLINK-4798,2022-114AS,2026-06-19T22:00:01.999584,15.96221431,.00005411,53.2144,156.6950,121.9176,331.9729,0,U,53858,999,571,.13923887E-2,.588276E-2,.15608749E-3
STARLINK-4790,2022-114AT,2026-06-19T08:21:13.480416,15.08833560,.00009968,53.1579,192.3039,76.9986,283.1117,0,U,53859,999,20839,.2899138E-5,-.242E-5,0
STARLINK-4799,2022-114AU,2026-06-19T07:47:31.910496,15.08861534,.00013155,53.1588,187.8715,67.8502,292.2629,0,U,53860,999,20821,-.35456171E-3,-.593E-4,0
STARLINK-4781,2022-114AV,2026-06-19T07:52:47.323200,15.08859355,.00014057,53.1594,187.8950,90.4630,269.6523,0,U,53861,999,20845,.35343064E-3,.5344E-4,0
STARLINK-4788,2022-114AX,2026-06-19T07:36:54.990432,15.08832752,.00011038,53.1593,187.8255,86.4475,273.6643,0,U,53863,999,20845,.44493667E-4,.42E-5,0
STARLINK-4779,2022-114AY,2026-06-19T08:08:37.573728,15.08831444,.00012118,53.1586,187.2537,76.8248,283.2879,0,U,53864,999,20846,-.23422193E-4,-.661E-5,0
STARLINK-4762,2022-114BA,2026-06-19T22:00:01.999584,15.12767785,.00006829,53.1606,165.2744,176.7565,144.8122,0,U,53866,999,579,.41605086E-2,.74288E-3,0
STARLINK-4793,2022-114BB,2026-06-19T22:00:01.999584,15.32184355,.00022388,53.2172,166.6383,87.3974,55.0671,0,U,53867,999,582,.29355153E-2,.93276E-3,0
STARLINK-4789,2022-114BC,2026-06-19T23:06:32.095008,15.09065928,.00019069,53.1596,164.7913,34.5947,325.5168,0,U,53868,999,20883,.1802855E-2,.28701E-3,0
STARLINK-4810,2022-114BD,2026-06-19T06:45:11.301120,15.08831077,.00010418,53.1593,177.6183,81.3916,278.7194,0,U,53869,999,20859,.4657498E-4,.453E-5,0
STARLINK-4732,2022-114BE,2026-06-19T21:35:30.253344,15.09651792,.00028918,53.1602,165.0934,135.8406,224.2817,0,U,53870,999,20882,.60912809E-2,.100253E-2,0
STARLINK-4740,2022-114BF,2026-06-19T06:35:53.779200,15.08833030,.00011807,53.1592,167.5991,84.4222,275.6904,0,U,53871,999,20873,-.3008672E-5,-.336E-5,0
STARLINK-5028,2022-119A,2026-06-19T10:47:44.207808,15.08835885,.00015055,53.1598,227.4222,71.8319,288.2836,0,U,53886,999,20704,.73767686E-4,.886E-5,0
STARLINK-5029,2022-119B,2026-06-19T10:31:47.984448,15.08832079,.00010745,53.1582,227.3524,85.8142,274.2972,0,U,53887,999,20704,-.15959424E-4,-.542E-5,0
STARLINK-5034,2022-119C,2026-06-20T01:25:41.320128,16.08105774,.0000736,53.2087,186.4132,114.7249,245.3863,0,U,53888,999,20767,.56516E-3,.48129E-2,.12485E-3
STARLINK-5031,2022-119D,2026-06-19T10:37:07.434624,15.08831375,.00011447,53.1596,227.3754,75.1138,284.9980,0,U,53889,999,20704,.11986108E-3,.162E-4,0
STARLINK-5050,2022-119E,2026-06-19T08:05:21.159744,15.08834113,.00011593,53.1592,192.4823,84.0302,276.0822,0,U,53890,999,20752,-.824399E-5,-.419E-5,0
STARLINK-5041,2022-119F,2026-06-19T22:00:01.999584,15.47852054,.00014895,53.2160,214.4849,80.3593,168.6668,0,U,53891,999,587,.25858083E-2,.138673E-2,0
