STARLINK-4746           
1 53846U 22114AE  26170.36419596  .00000361  00000+0  40748-4 0  9991
2 53846  53.1582 197.3903 0001048  86.4758 273.6354 15.08831867208327
STARLINK-4777           
1 53847U 22114AF  26170.37526101  .00000562  00000+0  53382-4 0  9995
2 53847  53.1590 197.4578 0000964  89.1967 270.9135 15.08826831208326
STARLINK-4780           
1 53848U 22114AG  26170.35682054  .00000379  00000+0  41867-4 0  9995
2 53848  53.1587 197.3449 0000824 124.0355 236.0715 15.08846459208329
STARLINK-4770           
1 53849U 22114AH  26170.91668981  .00116369  00000+0  50623-2 0  9996
2 53849  53.1607 194.6097 0001194 141.2357 132.6495 15.21352451  5652
STARLINK-4767           
1 53850U 22114AJ  26170.34576551  .00000222  00000+0  32016-4 0  9994
2 53850  53.1583 197.2768 0001281  76.7679 283.3456 15.08837812208321
STARLINK-4755           
1 53851U 22114AK  26170.49298849 -.00000368  00000+0 -50283-5 0  9992
2 53851  53.1585 196.7715 0001146  85.6450 274.4672 15.08832125208341
STARLINK-4797           
1 53852U 22114AL  26170.37387010 -.00001021  00000+0 -46109-4 0  9997
2 53852  53.1596 192.4656 0001227  88.0171 272.0961 15.08829054208395
STARLINK-4794           
1 53853U 22114AM  26170.35313770  .00000299  00000+0  36881-4 0  9998
2 53853  53.1587 197.3219 0001203  86.6215 273.4914 15.08832589208325
STARLINK-4800           
1 53854U 22114AN  26170.33572353 -.00000093  00000+0  12249-4 0  9996
2 53854  53.1586 187.9382 0001163  81.8495 278.2628 15.08832592208456
STARLINK-4703           
1 53855U 22114AP  26170.91668981  .00118154  00000+0  52363-2 0  9990
2 53855  53.1601 194.5450 0000524 158.2888 147.1914 15.20706701  5756
STARLINK-4795           
1 53856U 22114AQ  26170.91668981  .00580232  00000+0  31766-2 0  9995
2 53856  53.2176 167.4516 0000927 121.9678 321.7311 15.77678931  5776
STARLINK-4809           
1 53857U 22114AR  26170.91668981  .00079284  00000+0  39969-2 0  9999
2 53857  53.1600 194.5587 0000883 151.6079 149.1698 15.16467542  5792
STARLINK-4798           
1 53858U 22114AS  26170.91668981  .00588276  15609-3  13924-2 0  9994
2 53858  53.2144 156.6950 0000541 121.9176 331.9729 15.96221431  5710
STARLINK-4790           
1 53859U 22114AT  26170.34807269 -.00000242  00000+0  28991-5 0  9997
2 53859  53.1579 192.3039 0000996  76.9986 283.1117 15.08833560208392
STARLINK-4799           
1 53860U 22114AU  26170.32467489 -.00005930  00000+0 -35456-3 0  9995
2 53860  53.1588 187.8715 0001315  67.8502 292.2629 15.08861534208215
STARLINK-4781           
1 53861U 22114AV  26170.32832550  .00005344  00000+0  35343-3 0  9993
2 53861  53.1594 187.8950 0001405  90.4630 269.6523 15.08859355208453
STARLINK-4788           
1 53863U 22114AX  26170.31730313  .00000420  00000+0  44494-4 0  9996
2 53863  53.1593 187.8255 0001103  86.4475 273.6643 15.08832752208459
STARLINK-4779           
1 53864U 22114AY  26170.33932377 -.00000661  00000+0 -23422-4 0  9990
2 53864  53.1586 187.2537 0001211  76.8248 283.2879 15.08831444208466
STARLINK-4762           
1 53866U 22114BA  26170.91668981  .00074288  00000+0  41605-2 0  9998
2 53866  53.1606 165.2744 0000682 176.7565 144.8122 15.12767785  5795
STARLINK-4793           
1 53867U 22114BB  26170.91668981  .00093276  00000+0  29355-2 0  9995
2 53867  53.2172 166.6383 0002238  87.3974  55.0671 15.32184355  5823
STARLINK-4789           
1 53868U 22114BC  26170.96287147  .00028701  00000+0  18029-2 0  9999
2 53868  53.1596 164.7913 0001906  34.5947 325.5168 15.09065928208836
STARLINK-4810           
1 53869U 22114BD  26170.28138080  .00000453  00000+0  46575-4 0  9999
2 53869  53.1593 177.6183 0001041  81.3916 278.7194 15.08831077208598
STARLINK-4732           
1 53870U 22114BE  26170.89965571  .00100253  00000+0  60913-2 0  9990
2 53870  53.1602 165.0934 0002891 135.8406 224.2817 15.09651792208828
STARLINK-4740           
1 53871U 22114BF  26170.27492800 -.00000336  00000+0 -30087-5 0  9998
2 53871  53.1592 167.5991 0001180  84.4222 275.6904 15.08833030208735
STARLINK-5028           
1 53886U 22119A   26170.44981722  .00000886  00000+0  73768-4 0  9994
2 53886  53.1598 227.4222 0001505  71.8319 288.2836 15.08835885207045
STARLINK-5029           
1 53887U 22119B   26170.43874982 -.00000542  00000+0 -15959-4 0  9992
2 53887  53.1582 227.3524 0001074  85.8142 274.2972 15.08832079207041
STARLINK-5034           
1 53888U 22119C   26171.05950602  .00481290  12485-3  56516-3 0  9994
2 53888  53.2087 186.4132 0000736 114.7249 245.3863 16.08105774207670
STARLINK-5031           
1 53889U 22119D   26170.44244716  .00001620  00000+0  11986-3 0  9992
2 53889  53.1596 227.3754 0001144  75.1138 284.9980 15.08831375207043
STARLINK-5050           
1 53890U 22119E   26170.33705046 -.00000419  00000+0 -82440-5 0  9992
2 53890  53.1592 192.4823 0001159  84.0302 276.0822 15.08834113207521
STARLINK-5041           
1 53891U 22119F   26170.91668981  .00138673  00000+0  25858-2 0  9992
2 53891  53.2160 214.4849 0001489  80.3593 168.6668 15.47852054  5879
